STARLINK-2379           
1 47798U 21018M   26068.66946688 -.00003517  00000+0 -21739-3 0  9994
2 47798  53.0550 231.7042 0001171  85.9686 274.1437 15.06392315276879
2023-069B               
1 56732U 23069B   26068.54706144  .00006772  00000+0  42420-3 0  9992
2 56732  41.0081 274.4606 0011652 279.7432  80.2064 15.09579619155167
